[{"OBJECT_NAME":"STARLINK-30509","OBJECT_ID":"2023-151P","EPOCH":"2026-03-09T22:00:01.999584","MEAN_MOTION":15.27574665,"ECCENTRICITY":0.0002053,"INCLINATION":42.9999,"RA_OF_ASC_NODE":349.3873,"ARG_OF_PERICENTER":272.379,"MEAN_ANOMALY":254.4567,"EPHEMERIS_TYPE":0,"CLASSIFICATION_TYPE":"U","NORAD_CAT_ID":57977,"ELEMENT_SET_NO":999,"REV_AT_EPOCH":567,"BSTAR":-0.00021699943,"MEAN_MOTION_DOT":-6.228e-5,"MEAN_MOTION_DDOT":0},{"OBJECT_NAME":"FLOCK 4G-18","OBJECT_ID":"2025-009BZ","EPOCH":"2026-03-09T04:35:14.656704","MEAN_MOTION":15.27241676,"ECCENTRICITY":0.00041001,"INCLINATION":97.4054,"RA_OF_ASC_NODE":150.5008,"ARG_OF_PERICENTER":335.7331,"MEAN_ANOMALY":24.3715,"EPHEMERIS_TYPE":0,"CLASSIFICATION_TYPE":"U","NORAD_CAT_ID":62680,"ELEMENT_SET_NO":999,"REV_AT_EPOCH":12126,"BSTAR":0.0004431856,"MEAN_MOTION_DOT":0.00011766,"MEAN_MOTION_DDOT":0}]
